GLOBALSTAR M001 [-]     
1 25162U 98008A   23329.93453186 -.00000027  00000+0  53058-3 0  9992
2 25162  52.0012 190.0229 0002613 109.0296 354.4308 12.38173752173197
GLOBALSTAR M004 [-]     
1 25163U 98008B   23329.37762552 -.00000031  00000+0  40427-3 0  9992
2 25163  52.0012 352.4363 0003317 104.8251 358.0155 12.63342796189660
GLOBALSTAR M002 [-]     
1 25164U 98008C   23329.89278535 -.00000044  00000+0  63245-3 0  9990
2 25164  52.0003 227.5995 0001265 131.9819 228.1109 11.61497618117911
GLOBALSTAR M003 [-]     
1 25165U 98008D   23329.36660126  .00000054  00000+0  15293-2 0  9993
2 25165  51.9786 306.7887 0007583 225.6203 284.6095 12.11955793164120
GLOBALSTAR M014 [-]     
1 25306U 98023A   23329.82723161 -.00000033  00000+0  83273-3 0  9999
2 25306  51.9802 162.9554 0001853  67.9509  30.8667 11.65462481124788
GLOBALSTAR M006 [-]     
1 25307U 98023B   23329.95134020 -.00000027  00000+0  98950-3 0  9995
2 25307  51.9911 193.8410 0003858 145.9514 317.1697 11.58157223150874
GLOBALSTAR M015 [-]     
1 25308U 98023C   23329.26963979 -.00000068  00000+0  12807-3 0  9995
2 25308  51.9823 267.8956 0012319 137.8765  10.3063 11.48858344128576
GLOBALSTAR M008 [-]     
1 25309U 98023D   23329.72982396 -.00000067  00000+0  22999-3 0  9993
2 25309  51.9989  48.9995 0002795  67.0168 106.6359 12.36032268167420
